FLOCK 4Q-23             
1 58307U 23174BD  23361.20432423  .00008926  00000+0  47599-3 0  9996
2 58307  97.4827  73.4344 0014056 104.7193 255.5598 15.15313929  7485
FLOCK 4Q-33             
1 58308U 23174BE  23360.73639817  .00009756  00000+0  51678-3 0  9995
2 58308  97.4767  72.9435 0013262 103.7774 256.4935 15.15535590  7414
FLOCK 4Q-35             
1 58309U 23174BF  23361.20340280  .00008090  00000+0  43202-3 0  9996
2 58309  97.4817  73.4300 0014113 108.4092 251.8676 15.15294044  7483
FLOCK 4Q-32             
1 58310U 23174BG  23361.19765347  .00022616  00000+0  11761-2 0  9995
2 58310  97.4827  73.4436 0013603 101.6735 258.6025 15.15985990  7488
FLOCK 4Q-14             
1 58311U 23174BH  23361.20314570  .00007701  00000+0  41169-3 0  9990
2 58311  97.4754  73.3890 0012388  99.6376 260.6256 15.15290661  7480
FLOCK 4Q-3              
1 58312U 23174BJ  23361.19269601  .00017352  00000+0  90187-3 0  9990
2 58312  97.4822  73.4454 0012968 101.3194 258.9496 15.16068787  7486
FLOCK 4Q-20             
1 58313U 23174BK  23361.39980947  .00009176  00000+0  48794-3 0  9998
2 58313  97.4819  73.6276 0014241 102.7478 257.5347 15.15405177  7514
FLOCK 4Q-24             
1 58314U 23174BL  23361.20293067  .00007770  00000+0  41526-3 0  9993
2 58314  97.4761  73.3913 0013252 100.5726 259.6999 15.15291060  7485
FLOCK 4Q-6              
1 58315U 23174BM  23360.74178210  .00007815  00000+0  41857-3 0  9991
2 58315  97.4758  72.9322 0012912 101.3724 258.8960 15.15216550  7413
FLOCK 4Q-34             
1 58316U 23174BN  23358.16379910  .00008536  00000+0  45552-3 0  9992
2 58316  97.4777  70.4110 0013825 112.1322 248.1380 15.15306958  7028
FLOCK 4Q-7              
1 58318U 23174BQ  23361.20074991  .00007277  00000+0  38835-3 0  9991
2 58318  97.4822  73.4350 0014235 101.3422 258.9410 15.15350792  7485
FLOCK 4Q-15             
1 58319U 23174BR  23361.19923756  .00008151  00000+0  43333-3 0  9993
2 58319  97.4815  73.4323 0013728  98.6800 261.5988 15.15456752  7485
FLOCK 4Q-2              
1 58320U 23174BS  23361.20025466  .00007102  00000+0  37915-3 0  9992
2 58320  97.4769  73.4018 0013334  98.6311 261.6433 15.15360692  7489
FLOCK 4Q-9              
1 58322U 23174BU  23361.19965377  .00007052  00000+0  37624-3 0  9997
2 58322  97.4783  73.4115 0013604  99.4287 260.8484 15.15382744  7485
FLOCK 4Q-10             
1 58324U 23174BW  23361.13424217  .00009057  00000+0  48216-3 0  9992
2 58324  97.4790  73.3492 0013450  98.1278 262.1480 15.15378880  7473
FLOCK 4Q-5              
1 58325U 23174BX  23361.19740815  .00019113  00000+0  10022-2 0  9991
2 58325  97.4804  73.4294 0014146  97.8331 262.4508 15.15721688  7483
FLOCK 4Q-4              
1 58327U 23174BZ  23361.16153374  .00007967  00000+0  43605-3 0  9996
2 58327  97.4759  73.2961 0011485 115.2365 245.0059 15.14452650  7474
FLOCK 4Q-13             
1 58328U 23174CA  23361.16255227  .00007651  00000+0  41940-3 0  9997
2 58328  97.4823  73.3325 0013297 116.2818 243.9781 15.14394226  7472
FLOCK 4Q-21             
1 58329U 23174CB  23361.15876004  .00009948  00000+0  54081-3 0  9990
2 58329  97.4824  73.3398 0012372 115.4569 244.7945 15.14617452  7471
